{
  "type": "FeatureCollection",
  "features": [
    {
      "type": "Feature",
      "properties": {
        "norad_id": 64694,
        "name": "GOSAT-GW (IBUKI GW)",
        "group": "resource",
        "lat": 36.84208598456014,
        "lon": -72.5332038468657,
        "alt_km": 665.5380681124716,
        "timestamp": "2025-12-24T05:51:19.263631+00:00",
        "meta_object_name": "GOSAT-GW (IBUKI GW)",
        "meta_object_id": "2025-141A",
        "meta_epoch": "2025-12-23T23:08:26.656224",
        "meta_mean_motion": 14.67566873,
        "meta_eccentricity": 0.00014277,
        "meta_inclination": 98.0438,
        "meta_ra_of_asc_node": 293.2742,
        "meta_arg_of_pericenter": 84.2072,
        "meta_mean_anomaly": 275.9296,
        "meta_ephemeris_type": 0,
        "meta_classification_type": "U",
        "meta_norad_cat_id": 64694,
        "meta_element_set_no": 999,
        "meta_rev_at_epoch": 2614,
        "meta_bstar": 0.00018175254,
        "meta_mean_motion_dot": 9.84e-06,
        "meta_mean_motion_ddot": 0,
        "tle_line1": "1 64694U 25141A   25357.96419741  .00000984  00000+0  18175-3 0  9990",
        "tle_line2": "2 64694  98.0438 293.2742 0001427  84.2072 275.9296 14.67566873 26145"
      },
      "geometry": {
        "type": "Point",
        "coordinates": [
          -72.5332038468657,
          36.84208598456014
        ]
      }
    },
    {
      "type": "Feature",
      "properties": {
        "norad_id": 64876,
        "name": "IONOSFERA-M 3",
        "group": "resource",
        "lat": -65.72141971798435,
        "lon": -20.66033334662543,
        "alt_km": 828.0973078671495,
        "timestamp": "2025-12-24T05:51:19.263641+00:00",
        "meta_object_name": "IONOSFERA-M 3",
        "meta_object_id": "2025-155A",
        "meta_epoch": "2025-12-23T21:43:26.769216",
        "meta_mean_motion": 14.21443648,
        "meta_eccentricity": 0.00018852,
        "meta_inclination": 98.5799,
        "meta_ra_of_asc_node": 319.456,
        "meta_arg_of_pericenter": 41.7597,
        "meta_mean_anomaly": 318.3724,
        "meta_ephemeris_type": 0,
        "meta_classification_type": "U",
        "meta_norad_cat_id": 64876,
        "meta_element_set_no": 999,
        "meta_rev_at_epoch": 2150,
        "meta_bstar": 5.5459666e-05,
        "meta_mean_motion_dot": 7.9e-07,
        "meta_mean_motion_ddot": 0,
        "tle_line1": "1 64876U 25155A   25357.90517094  .00000079  00000+0  55460-4 0  9995",
        "tle_line2": "2 64876  98.5799 319.4560 0001885  41.7597 318.3724 14.21443648 21506"
      },
      "geometry": {
        "type": "Point",
        "coordinates": [
          -20.66033334662543,
          -65.72141971798435
        ]
      }
    },
    {
      "type": "Feature",
      "properties": {
        "norad_id": 64877,
        "name": "IONOSFERA-M 4",
        "group": "resource",
        "lat": 64.9460715220628,
        "lon": 158.5472496691705,
        "alt_km": 813.6599579259082,
        "timestamp": "2025-12-24T05:51:19.263652+00:00",
        "meta_object_name": "IONOSFERA-M 4",
        "meta_object_id": "2025-155B",
        "meta_epoch": "2025-12-23T22:33:55.746720",
        "meta_mean_motion": 14.21444805,
        "meta_eccentricity": 0.00013149,
        "meta_inclination": 98.5799,
        "meta_ra_of_asc_node": 319.4095,
        "meta_arg_of_pericenter": 52.671,
        "meta_mean_anomaly": 307.4587,
        "meta_ephemeris_type": 0,
        "meta_classification_type": "U",
        "meta_norad_cat_id": 64877,
        "meta_element_set_no": 999,
        "meta_rev_at_epoch": 2150,
        "meta_bstar": 5.4840067e-05,
        "meta_mean_motion_dot": 7.7e-07,
        "meta_mean_motion_ddot": 0,
        "tle_line1": "1 64877U 25155B   25357.94022855  .00000077  00000+0  54840-4 0  9995",
        "tle_line2": "2 64877  98.5799 319.4095 0001314  52.6710 307.4587 14.21444805 21507"
      },
      "geometry": {
        "type": "Point",
        "coordinates": [
          158.5472496691705,
          64.9460715220628
        ]
      }
    },
    {
      "type": "Feature",
      "properties": {
        "norad_id": 64899,
        "name": "MICROCARB",
        "group": "resource",
        "lat": -21.382162780139222,
        "lon": -109.75265746741678,
        "alt_km": 660.0332940822527,
        "timestamp": "2025-12-24T05:51:19.263662+00:00",
        "meta_object_name": "MICROCARB",
        "meta_object_id": "2025-156A",
        "meta_epoch": "2025-12-23T19:09:23.800032",
        "meta_mean_motion": 14.72074082,
        "meta_eccentricity": 0.00175961,
        "meta_inclination": 98.0012,
        "meta_ra_of_asc_node": 72.9658,
        "meta_arg_of_pericenter": 111.6038,
        "meta_mean_anomaly": 248.7046,
        "meta_ephemeris_type": 0,
        "meta_classification_type": "U",
        "meta_norad_cat_id": 64899,
        "meta_element_set_no": 999,
        "meta_rev_at_epoch": 2216,
        "meta_bstar": 0.00011305664,
        "meta_mean_motion_dot": 6.63e-06,
        "meta_mean_motion_ddot": 0,
        "tle_line1": "1 64899U 25156A   25357.79819213  .00000663  00000+0  11306-3 0  9995",
        "tle_line2": "2 64899  98.0012  72.9658 0017596 111.6038 248.7046 14.72074082 22160"
      },
      "geometry": {
        "type": "Point",
        "coordinates": [
          -109.75265746741678,
          -21.382162780139222
        ]
      }
    },
    {
      "type": "Feature",
      "properties": {
        "norad_id": 64900,
        "name": "CO3D 3",
        "group": "resource",
        "lat": 71.36840773157628,
        "lon": 51.661515765631215,
        "alt_km": 497.4203710062102,
        "timestamp": "2025-12-24T05:51:19.263672+00:00",
        "meta_object_name": "CO3D 3",
        "meta_object_id": "2025-156B",
        "meta_epoch": "2025-12-23T23:13:01.572384",
        "meta_mean_motion": 15.20209466,
        "meta_eccentricity": 0.00013203,
        "meta_inclination": 97.4338,
        "meta_ra_of_asc_node": 74.1736,
        "meta_arg_of_pericenter": 74.5464,
        "meta_mean_anomaly": 285.5916,
        "meta_ephemeris_type": 0,
        "meta_classification_type": "U",
        "meta_norad_cat_id": 64900,
        "meta_element_set_no": 999,
        "meta_rev_at_epoch": 2291,
        "meta_bstar": 0.0003079994,
        "meta_mean_motion_dot": 6.607e-05,
        "meta_mean_motion_ddot": 0,
        "tle_line1": "1 64900U 25156B   25357.96737931  .00006607  00000+0  30800-3 0  9997",
        "tle_line2": "2 64900  97.4338  74.1736 0001320  74.5464 285.5916 15.20209466 22914"
      },
      "geometry": {
        "type": "Point",
        "coordinates": [
          51.661515765631215,
          71.36840773157628
        ]
      }
    },
    {
      "type": "Feature",
      "properties": {
        "norad_id": 64901,
        "name": "CO3D 4",
        "group": "resource",
        "lat": 70.58227532084769,
        "lon": 52.70573668766959,
        "alt_km": 498.32992785986426,
        "timestamp": "2025-12-24T05:51:19.263682+00:00",
        "meta_object_name": "CO3D 4",
        "meta_object_id": "2025-156C",
        "meta_epoch": "2025-12-23T20:03:40.563360",
        "meta_mean_motion": 15.2020851,
        "meta_eccentricity": 0.00013972,
        "meta_inclination": 97.4338,
        "meta_ra_of_asc_node": 74.044,
        "meta_arg_of_pericenter": 159.7182,
        "meta_mean_anomaly": 200.4109,
        "meta_ephemeris_type": 0,
        "meta_classification_type": "U",
        "meta_norad_cat_id": 64901,
        "meta_element_set_no": 999,
        "meta_rev_at_epoch": 2289,
        "meta_bstar": 0.00021003643,
        "meta_mean_motion_dot": 4.483e-05,
        "meta_mean_motion_ddot": 0,
        "tle_line1": "1 64901U 25156C   25357.83588615  .00004483  00000+0  21004-3 0  9993",
        "tle_line2": "2 64901  97.4338  74.0440 0001397 159.7182 200.4109 15.20208510 22899"
      },
      "geometry": {
        "type": "Point",
        "coordinates": [
          52.70573668766959,
          70.58227532084769
        ]
      }
    },
    {
      "type": "Feature",
      "properties": {
        "norad_id": 64902,
        "name": "CO3D 2",
        "group": "resource",
        "lat": -72.81964826067744,
        "lon": -130.63542740205042,
        "alt_km": 513.0697099190565,
        "timestamp": "2025-12-24T05:51:19.263692+00:00",
        "meta_object_name": "CO3D 2",
        "meta_object_id": "2025-156D",
        "meta_epoch": "2025-12-23T22:25:13.748160",
        "meta_mean_motion": 15.20209277,
        "meta_eccentricity": 8.011e-05,
        "meta_inclination": 97.4338,
        "meta_ra_of_asc_node": 74.0398,
        "meta_arg_of_pericenter": 68.325,
        "meta_mean_anomaly": 291.8071,
        "meta_ephemeris_type": 0,
        "meta_classification_type": "U",
        "meta_norad_cat_id": 64902,
        "meta_element_set_no": 999,
        "meta_rev_at_epoch": 2290,
        "meta_bstar": 0.00029609136,
        "meta_mean_motion_dot": 6.349e-05,
        "meta_mean_motion_ddot": 0,
        "tle_line1": "1 64902U 25156D   25357.93418690  .00006349  00000+0  29609-3 0  9992",
        "tle_line2": "2 64902  97.4338  74.0398 0000801  68.3250 291.8071 15.20209277 22907"
      },
      "geometry": {
        "type": "Point",
        "coordinates": [
          -130.63542740205042,
          -72.81964826067744
        ]
      }
    }
  ]
}